ION SCV-008             
1 55051U 23001AU  26068.82429008  .00008336  00000+0  31423-3 0  9992
2 55051  97.5676 163.6060 0015192   8.5420 351.6074 15.27226640176169
STARLINK-36496          
1 67329U 26002AA  26068.06517928  .00037861  00000+0  13789-2 0  9991
2 67329  43.0006 328.7667 0001739 272.1531  87.9121 15.27564785 10966
